CTC2_L_00024001-01
1 31362U 25188JM  26070.40842593  .00000000  00000+0  00000-0 0  9998
2 31362  60.0000   0.0000 0000000   0.0000   0.0000 15.69614517    19
CTC2_L_00024001-02
1 31363U 25676GE  26070.40842593  .00000000  00000+0  00000-0 0  9991
2 31363  60.0000   0.0000 0000000   0.0000  90.0000 15.69614517    19
CTC2_L_00024001-03
1 31364U 25095PV  26070.40842593  .00000000  00000+0  00000-0 0  9997
2 31364  60.0000   0.0000 0000000   0.0000 180.0000 15.69614517    10
CTC2_L_00024001-04
1 31365U 22024QW  26070.40842593  .00000000  00000+0  00000-0 0  9997
2 31365  60.0000   0.0000 0000000   0.0000 270.0000 15.69614517    11
CTC2_L_00024002-01
1 31366U 23774TO  26070.40842593  .00000000  00000+0  00000-0 0  9991
2 31366  60.0000  12.0000 0000000   0.0000  12.0000 15.69614517    19
CTC2_L_00024002-02
1 31367U 25479JP  26070.40842593  .00000000  00000+0  00000-0 0  9996
2 31367  60.0000  12.0000 0000000   0.0000 102.0000 15.69614517    10
CTC2_L_00024002-03
1 31368U 22782FV  26070.40842593  .00000000  00000+0  00000-0 0  9991
2 31368  60.0000  12.0000 0000000   0.0000 192.0000 15.69614517    10
CTC2_L_00024002-04
1 31369U 22778AQ  26070.40842593  .00000000  00000+0  00000-0 0  9997
2 31369  60.0000  12.0000 0000000   0.0000 282.0000 15.69614517    11
CTC2_L_00024003-01
1 31370U 22376QW  26070.40842593  .00000000  00000+0  00000-0 0  9993
2 31370  60.0000  24.0000 0000000   0.0000  24.0000 15.69614517    10
CTC2_L_00024003-02
1 31371U 26253NL  26070.40842593  .00000000  00000+0  00000-0 0  9992
2 31371  60.0000  24.0000 0000000   0.0000 114.0000 15.69614517    11
CTC2_L_00024003-03
1 31372U 25845HU  26070.40842593  .00000000  00000+0  00000-0 0  9999
2 31372  60.0000  24.0000 0000000   0.0000 204.0000 15.69614517    12
CTC2_L_00024003-04
1 31373U 24942LA  26070.40842593  .00000000  00000+0  00000-0 0  9997
2 31373  60.0000  24.0000 0000000   0.0000 294.0000 15.69614517    12
CTC2_L_00024004-01
1 31374U 23157PX  26070.40842593  .00000000  00000+0  00000-0 0  9995
2 31374  60.0000  36.0000 0000000   0.0000  36.0000 15.69614517    10
CTC2_L_00024004-02
1 31375U 23630Q   26070.40842593  .00000000  00000+0  00000-0 0  9992
2 31375  60.0000  36.0000 0000000   0.0000 126.0000 15.69614517    11
CTC2_L_00024004-03
1 31376U 26730RS  26070.40842593  .00000000  00000+0  00000-0 0  9997
2 31376  60.0000  36.0000 0000000   0.0000 216.0000 15.69614517    12
CTC2_L_00024004-04
1 31377U 23375JH  26070.40842593  .00000000  00000+0  00000-0 0  9990
2 31377  60.0000  36.0000 0000000   0.0000 306.0000 15.69614517    13
CTC2_L_00024005-01
1 31378U 26096XQ  26070.40842593  .00000000  00000+0  00000-0 0  9994
2 31378  60.0000  48.0000 0000000   0.0000  48.0000 15.69614517    10
CTC2_L_00024005-02
1 31379U 23450QN  26070.40842593  .00000000  00000+0  00000-0 0  9996
2 31379  60.0000  48.0000 0000000   0.0000 138.0000 15.69614517    11
CTC2_L_00024005-03
1 31380U 26923KJ  26070.40842593  .00000000  00000+0  00000-0 0  9996
2 31380  60.0000  48.0000 0000000   0.0000 228.0000 15.69614517    13
CTC2_L_00024005-04
1 31381U 25945OI  26070.40842593  .00000000  00000+0  00000-0 0  9990
2 31381  60.0000  48.0000 0000000   0.0000 318.0000 15.69614517    14
CTC2_L_00024006-01
1 31382U 26790TQ  26070.40842593  .00000000  00000+0  00000-0 0  9990
2 31382  60.0000  60.0000 0000000   0.0000  60.0000 15.69614517    13
CTC2_L_00024006-02
1 31383U 24756TM  26070.40842593  .00000000  00000+0  00000-0 0  9991
2 31383  60.0000  60.0000 0000000   0.0000 150.0000 15.69614517    14
CTC2_L_00024006-03
1 31384U 26299UR  26070.40842593  .00000000  00000+0  00000-0 0  9996
2 31384  60.0000  60.0000 0000000   0.0000 240.0000 15.69614517    15
CTC2_L_00024006-04
1 31385U 26339LS  26070.40842593  .00000000  00000+0  00000-0 0  9992
2 31385  60.0000  60.0000 0000000   0.0000 330.0000 15.69614517    16
CTC2_L_00024007-01
1 31386U 25521GF  26070.40842593  .00000000  00000+0  00000-0 0  9995
2 31386  60.0000  72.0000 0000000   0.0000  72.0000 15.69614517    13
CTC2_L_00024007-02
1 31387U 26112SS  26070.40842593  .00000000  00000+0  00000-0 0  9993
2 31387  60.0000  72.0000 0000000   0.0000 162.0000 15.69614517    14
CTC2_L_00024007-03
1 31388U 22103YP  26070.40842593  .00000000  00000+0  00000-0 0  9990
2 31388  60.0000  72.0000 0000000   0.0000 252.0000 15.69614517    15
CTC2_L_00024007-04
1 31389U 24593Y   26070.40842593  .00000000  00000+0  00000-0 0  9996
2 31389  60.0000  72.0000 0000000   0.0000 342.0000 15.69614517    16
CTC2_L_00024008-01
1 31390U 26079UO  26070.40842593  .00000000  00000+0  00000-0 0  9999
2 31390  60.0000  84.0000 0000000   0.0000  84.0000 15.69614517    14
CTC2_L_00024008-02
1 31391U 22217JX  26070.40842593  .00000000  00000+0  00000-0 0  9990
2 31391  60.0000  84.0000 0000000   0.0000 174.0000 15.69614517    15
CTC2_L_00024008-03
1 31392U 24981OM  26070.40842593  .00000000  00000+0  00000-0 0  9991
2 31392  60.0000  84.0000 0000000   0.0000 264.0000 15.69614517    16
CTC2_L_00024008-04
1 31393U 24155QV  26070.40842593  .00000000  00000+0  00000-0 0  9995
2 31393  60.0000  84.0000 0000000   0.0000 354.0000 15.69614517    17
CTC2_L_00024009-01
1 31394U 25472JR  26070.40842593  .00000000  00000+0  00000-0 0  9999
2 31394  60.0000  96.0000 0000000   0.0000  96.0000 15.69614517    14
CTC2_L_00024009-02
1 31395U 26676PE  26070.40842593  .00000000  00000+0  00000-0 0  9997
2 31395  60.0000  96.0000 0000000   0.0000 186.0000 15.69614517    15
CTC2_L_00024009-03
1 31396U 25542P   26070.40842593  .00000000  00000+0  00000-0 0  9999
2 31396  60.0000  96.0000 0000000   0.0000 276.0000 15.69614517    16
CTC2_L_00024009-04
1 31397U 25320GM  26070.40842593  .00000000  00000+0  00000-0 0  9994
2 31397  60.0000  96.0000 0000000   0.0000   6.0000 15.69614517    18
CTC2_L_00024010-01
1 31398U 23965TY  26070.40842593  .00000000  00000+0  00000-0 0  9998
2 31398  60.0000 108.0000 0000000   0.0000 108.0000 15.69614517    16
CTC2_L_00024010-02
1 31399U 24849BE  26070.40842593  .00000000  00000+0  00000-0 0  9991
2 31399  60.0000 108.0000 0000000   0.0000 198.0000 15.69614517    16
CTC2_L_00024010-03
1 31400U 25408YZ  26070.40842593  .00000000  00000+0  00000-0 0  9996
2 31400  60.0000 108.0000 0000000   0.0000 288.0000 15.69614517    19
CTC2_L_00024010-04
1 31401U 23704EF  26070.40842593  .00000000  00000+0  00000-0 0  9994
2 31401  60.0000 108.0000 0000000   0.0000  18.0000 15.69614517    11
CTC2_L_00024011-01
1 31402U 23416TA  26070.40842593  .00000000  00000+0  00000-0 0  9995
2 31402  60.0000 120.0000 0000000   0.0000 120.0000 15.69614517    10
CTC2_L_00024011-02
1 31403U 22938CU  26070.40842593  .00000000  00000+0  00000-0 0  9994
2 31403  60.0000 120.0000 0000000   0.0000 210.0000 15.69614517    11
CTC2_L_00024011-03
1 31404U 26024OC  26070.40842593  .00000000  00000+0  00000-0 0  9995
2 31404  60.0000 120.0000 0000000   0.0000 300.0000 15.69614517    12
CTC2_L_00024011-04
1 31405U 24949RJ  26070.40842593  .00000000  00000+0  00000-0 0  9990
2 31405  60.0000 120.0000 0000000   0.0000  30.0000 15.69614517    13
CTC2_L_00024012-01
1 31406U 23751DN  26070.40842593  .00000000  00000+0  00000-0 0  9991
2 31406  60.0000 132.0000 0000000   0.0000 132.0000 15.69614517    10
CTC2_L_00024012-02
1 31407U 25277AZ  26070.40842593  .00000000  00000+0  00000-0 0  9997
2 31407  60.0000 132.0000 0000000   0.0000 222.0000 15.69614517    11
CTC2_L_00024012-03
1 31408U 25347UQ  26070.40842593  .00000000  00000+0  00000-0 0  9996
2 31408  60.0000 132.0000 0000000   0.0000 312.0000 15.69614517    12
CTC2_L_00024012-04
1 31409U 22704KF  26070.40842593  .00000000  00000+0  00000-0 0  9991
2 31409  60.0000 132.0000 0000000   0.0000  42.0000 15.69614517    13
CTC2_L_00024013-01
1 31410U 26860MH  26070.40842593  .00000000  00000+0  00000-0 0  9990
2 31410  60.0000 144.0000 0000000   0.0000 144.0000 15.69614517    11
CTC2_L_00024013-02
1 31411U 25985QS  26070.40842593  .00000000  00000+0  00000-0 0  9998
2 31411  60.0000 144.0000 0000000   0.0000 234.0000 15.69614517    12
CTC2_L_00024013-03
1 31412U 22723ZR  26070.40842593  .00000000  00000+0  00000-0 0  9996
2 31412  60.0000 144.0000 0000000   0.0000 324.0000 15.69614517    13
CTC2_L_00024013-04
1 31413U 22621OU  26070.40842593  .00000000  00000+0  00000-0 0  9994
2 31413  60.0000 144.0000 0000000   0.0000  54.0000 15.69614517    14
CTC2_L_00024014-01
1 31414U 26255UH  26070.40842593  .00000000  00000+0  00000-0 0  9992
2 31414  60.0000 156.0000 0000000   0.0000 156.0000 15.69614517    11
CTC2_L_00024014-02
1 31415U 24319VQ  26070.40842593  .00000000  00000+0  00000-0 0  9992
2 31415  60.0000 156.0000 0000000   0.0000 246.0000 15.69614517    12
CTC2_L_00024014-03
1 31416U 22776HY  26070.40842593  .00000000  00000+0  00000-0 0  9998
2 31416  60.0000 156.0000 0000000   0.0000 336.0000 15.69614517    13
CTC2_L_00024014-04
1 31417U 25768LX  26070.40842593  .00000000  00000+0  00000-0 0  9993
2 31417  60.0000 156.0000 0000000   0.0000  66.0000 15.69614517    14
CTC2_L_00024015-01
1 31418U 23662ZN  26070.40842593  .00000000  00000+0  00000-0 0  9995
2 31418  60.0000 168.0000 0000000   0.0000 168.0000 15.69614517    11
CTC2_L_00024015-02
1 31419U 25025DS  26070.40842593  .00000000  00000+0  00000-0 0  9991
2 31419  60.0000 168.0000 0000000   0.0000 258.0000 15.69614517    12
CTC2_L_00024015-03
1 31420U 25636YT  26070.40842593  .00000000  00000+0  00000-0 0  9991
2 31420  60.0000 168.0000 0000000   0.0000 348.0000 15.69614517    14
CTC2_L_00024015-04
1 31421U 22851VT  26070.40842593  .00000000  00000+0  00000-0 0  9998
2 31421  60.0000 168.0000 0000000   0.0000  78.0000 15.69614517    15
CTC2_L_00024016-01
1 31422U 26017NX  26070.40842593  .00000000  00000+0  00000-0 0  9997
2 31422  60.0000 180.0000 0000000   0.0000 180.0000 15.69614517    14
CTC2_L_00024016-02
1 31423U 23951NU  26070.40842593  .00000000  00000+0  00000-0 0  9992
2 31423  60.0000 180.0000 0000000   0.0000 270.0000 15.69614517    15
